<gpx xmlns:ns3="http://www.garmin.com/xmlschemas/TrackPointExtension/v1" xmlns="http://www.topografix.com/GPX/1/1" xmlns:xsi="http://www.w3.org/2001/XMLSchema-instance" xmlns:ns2="http://www.garmin.com/xmlschemas/GpxExtensions/v3" creator="Garmin Connect" version="1.1" xsi:schemaLocation="http://www.topografix.com/GPX/1/1 http://www.topografix.com/GPX/11.xsd">
  <extensions>
<distance>65.42</distance>
<average_hr>117.0</average_hr>
<average_speed>0.01899999938905239</average_speed>
<start_time>2026-07-24T23:03:33+00:00</start_time>
<end_time>2026-07-25T00:02:27.026000+00:00</end_time>
<moving_time>55.0</moving_time>
<elapsed_time>3534.026</elapsed_time>
</extensions>
<metadata>
    <link href="connect.garmin.com">
      <text>Garmin Connect</text>
    </link>
    <time>2026-07-24T23:03:33.000Z</time>
  </metadata>
  <trk>
    <name>Tennis</name>
    <type>tennis_v2</type>
    <trkseg/>
  </trk>
</gpx>
