<gpx xmlns:ns3="http://www.garmin.com/xmlschemas/TrackPointExtension/v1" xmlns="http://www.topografix.com/GPX/1/1" xmlns:xsi="http://www.w3.org/2001/XMLSchema-instance" xmlns:ns2="http://www.garmin.com/xmlschemas/GpxExtensions/v3" creator="Garmin Connect" version="1.1" xsi:schemaLocation="http://www.topografix.com/GPX/1/1 http://www.topografix.com/GPX/11.xsd">
  <extensions>
<distance>111.93</distance>
<average_hr>128.0</average_hr>
<average_speed>0.026000000536441803</average_speed>
<start_time>2026-08-02T08:14:30+00:00</start_time>
<end_time>2026-08-02T09:27:23.298000+00:00</end_time>
<moving_time>165.0</moving_time>
<elapsed_time>6280.227</elapsed_time>
</extensions>
<metadata>
    <link href="connect.garmin.com">
      <text>Garmin Connect</text>
    </link>
    <time>2026-08-02T08:14:30.000Z</time>
  </metadata>
  <trk>
    <name>Badminton</name>
    <type>badminton</type>
    <trkseg/>
  </trk>
</gpx>
