<gpx xmlns:ns3="http://www.garmin.com/xmlschemas/TrackPointExtension/v1" xmlns="http://www.topografix.com/GPX/1/1" xmlns:xsi="http://www.w3.org/2001/XMLSchema-instance" xmlns:ns2="http://www.garmin.com/xmlschemas/GpxExtensions/v3" creator="Garmin Connect" version="1.1" xsi:schemaLocation="http://www.topografix.com/GPX/1/1 http://www.topografix.com/GPX/11.xsd">
  <extensions>
<distance>79.81</distance>
<average_hr>125.0</average_hr>
<average_speed>0.0430000014603138</average_speed>
<start_time>2026-08-04T22:59:22+00:00</start_time>
<end_time>2026-08-04T23:30:28.731000+00:00</end_time>
<moving_time>64.0</moving_time>
<elapsed_time>3562.034</elapsed_time>
</extensions>
<metadata>
    <link href="connect.garmin.com">
      <text>Garmin Connect</text>
    </link>
    <time>2026-08-04T22:59:22.000Z</time>
  </metadata>
  <trk>
    <name>Tennis</name>
    <type>tennis_v2</type>
    <trkseg/>
  </trk>
</gpx>
