<gpx xmlns:ns3="http://www.garmin.com/xmlschemas/TrackPointExtension/v1" xmlns="http://www.topografix.com/GPX/1/1" xmlns:xsi="http://www.w3.org/2001/XMLSchema-instance" xmlns:ns2="http://www.garmin.com/xmlschemas/GpxExtensions/v3" creator="Garmin Connect" version="1.1" xsi:schemaLocation="http://www.topografix.com/GPX/1/1 http://www.topografix.com/GPX/11.xsd">
  <extensions>
<distance>10.78</distance>
<average_hr>158.0</average_hr>
<average_speed>0.0030000000260770325</average_speed>
<start_time>2026-08-24T23:04:45+00:00</start_time>
<end_time>2026-08-25T00:00:07.929000+00:00</end_time>
<moving_time>0.0</moving_time>
<elapsed_time>3322.929</elapsed_time>
</extensions>
<metadata>
    <link href="connect.garmin.com">
      <text>Garmin Connect</text>
    </link>
    <time>2026-08-24T23:04:45.000Z</time>
  </metadata>
  <trk>
    <name>Tennis</name>
    <type>tennis_v2</type>
    <trkseg/>
  </trk>
</gpx>
