<gpx xmlns:ns3="http://www.garmin.com/xmlschemas/TrackPointExtension/v1" xmlns="http://www.topografix.com/GPX/1/1" xmlns:xsi="http://www.w3.org/2001/XMLSchema-instance" xmlns:ns2="http://www.garmin.com/xmlschemas/GpxExtensions/v3" creator="Garmin Connect" version="1.1" xsi:schemaLocation="http://www.topografix.com/GPX/1/1 http://www.topografix.com/GPX/11.xsd">
  <extensions>
<distance></distance>
<average_hr>101.0</average_hr>
<average_speed></average_speed>
<start_time>2026-08-30T01:31:03+00:00</start_time>
<end_time>2026-08-30T03:04:21.982000+00:00</end_time>
<moving_time>5598.982</moving_time>
<elapsed_time>5598.982</elapsed_time>
</extensions>
<metadata>
    <link href="connect.garmin.com">
      <text>Garmin Connect</text>
    </link>
    <time>2026-08-30T01:31:03.000Z</time>
  </metadata>
  <trk>
    <name>Yoga</name>
    <type>yoga</type>
    <trkseg/>
  </trk>
</gpx>
