<gpx xmlns:ns3="http://www.garmin.com/xmlschemas/TrackPointExtension/v1" xmlns="http://www.topografix.com/GPX/1/1" xmlns:xsi="http://www.w3.org/2001/XMLSchema-instance" xmlns:ns2="http://www.garmin.com/xmlschemas/GpxExtensions/v3" creator="Garmin Connect" version="1.1" xsi:schemaLocation="http://www.topografix.com/GPX/1/1 http://www.topografix.com/GPX/11.xsd">
  <extensions>
<distance>25.97</distance>
<average_hr>149.0</average_hr>
<average_speed>0.007000000216066837</average_speed>
<start_time>2026-09-21T23:03:45+00:00</start_time>
<end_time>2026-09-22T00:01:47.592000+00:00</end_time>
<moving_time>21.0</moving_time>
<elapsed_time>3482.592</elapsed_time>
</extensions>
<metadata>
    <link href="connect.garmin.com">
      <text>Garmin Connect</text>
    </link>
    <time>2026-09-21T23:03:45.000Z</time>
  </metadata>
  <trk>
    <name>Tennis</name>
    <type>tennis_v2</type>
    <trkseg/>
  </trk>
</gpx>
